NESS                    
1 58020U 23155E   26068.76452457  .00019469  00000+0  74047-3 0  9996
2 58020  97.5941 152.6141 0006891 179.8776 180.2465 15.26794015133307
STARLINK-35588          
1 66424U 25259C   26068.84337046  .00030461  00000+0  11115-2 0  9996
2 66424  43.0007 273.5851 0002218 275.2153  84.8446 15.27589023 19519
