[{"OBJECT_NAME":"NESS","OBJECT_ID":"2023-155E","EPOCH":"2026-03-09T18:20:54.923712","MEAN_MOTION":15.26794015,"ECCENTRICITY":0.00068914,"INCLINATION":97.5941,"RA_OF_ASC_NODE":152.6141,"ARG_OF_PERICENTER":179.8776,"MEAN_ANOMALY":180.2465,"EPHEMERIS_TYPE":0,"CLASSIFICATION_TYPE":"U","NORAD_CAT_ID":58020,"ELEMENT_SET_NO":999,"REV_AT_EPOCH":13330,"BSTAR":0.00074047066,"MEAN_MOTION_DOT":0.00019469,"MEAN_MOTION_DDOT":0},{"OBJECT_NAME":"STARLINK-35588","OBJECT_ID":"2025-259C","EPOCH":"2026-03-09T20:14:27.208608","MEAN_MOTION":15.27589023,"ECCENTRICITY":0.00022179,"INCLINATION":43.0007,"RA_OF_ASC_NODE":273.5851,"ARG_OF_PERICENTER":275.2153,"MEAN_ANOMALY":84.8446,"EPHEMERIS_TYPE":0,"CLASSIFICATION_TYPE":"U","NORAD_CAT_ID":66424,"ELEMENT_SET_NO":999,"REV_AT_EPOCH":1951,"BSTAR":0.0011115386,"MEAN_MOTION_DOT":0.00030461,"MEAN_MOTION_DDOT":0}]
